STARLINK-1545
1 16156C 20057AR  21326.10453082  .00002002  00000-0  13416-3 0  3269
2 16156  53.0514 138.2738 0001849  82.5540 306.9658 15.06382477    11
